0 YAMAL 402
1 39022U 12070A   13281.80212422  .00000074  00000-0  10000-3 0  2316
2 39022 000.0202 297.2613 0000675 216.4063 207.5855 01.00273079  3130
0 YAMAL 402
1 39022U 12070A   13283.41900030  .00000000  00000-0  10000-3 0  2324
2 39022 000.0044 296.4051 0002065 189.1317 099.4101 01.00270788  2533
0 YAMAL 402
1 39022U 12070A   13284.15359139  .00000066  00000-0  10000-3 0  2326
2 39022 000.0151 274.5339 0001823 211.2484 004.3341 01.00273308  3152
0 YAMAL 402
1 39022U 12070A   13285.98411646  .00000062  00000-0  10000-3 0  2348
2 39022 000.0243 283.0004 0002277 204.0859 303.8098 01.00271738  3171
0 YAMAL 402
1 39022U 12070A   13286.11183124  .00000062  00000-0  10000-3 0  2352
2 39022 000.0240 283.6663 0002060 208.9023 344.4252 01.00270953  3172
0 YAMAL 402
1 39022U 12070A   13287.12186034  .00000061  00000-0  10000-3 0  2367
2 39022 000.0218 281.9528 0002150 208.3612 351.2847 01.00271481  3180
0 YAMAL 402
1 39022U 12070A   13288.14351810  .00000061  00000-0  10000-3 0  2377
2 39022 000.0195 282.1573 0001977 212.4274 355.8153 01.00271748  3190
0 YAMAL 402
1 39022U 12070A   13289.93137005  .00000063  00000-0  10000-3 0  2386
2 39022 000.0158 282.0727 0001680 218.0827 275.6363 01.00272688  3215
0 YAMAL 402
1 39022U 12070A   13290.39711273  .00000000  00000-0  10000-3 0  2395
2 39022 000.0026 286.9872 0001985 202.5455 094.4279 01.00271868  2598
0 YAMAL 402
1 39022U 12070A   13290.98030685  .00000065  00000-0  10000-3 0  2392
2 39022 000.0131 280.8371 0001682 222.1201 291.4845 01.00272696  3222
0 YAMAL 402
1 39022U 12070A   13292.13367221  .00000067  00000-0  10000-3 0  2404
2 39022 000.0105 280.3633 0001499 226.1739 344.2516 01.00272746  3234
0 YAMAL 402
1 39022U 12070A   13293.92326791  .00000070  00000-0  10000-3 0  2414
2 39022 000.0069 280.3393 0001499 226.2331 270.2401 01.00273433  3252
